#aV2006  5 24  0  0   .00000000      96 DD+AD WGS84 FIT  NGA
## 1376 259200.00000000   900.00000000 53879  .0000000000000
+   29     1  2  3  4  5  6  7  8  9 10 11 13 14 15 16 17 18
+         19 20 21 22 23 24 25 26 27 28 29 30  0  0  0  0  0
+          0  0  0  0  0  0  0  0  0  0  0  0  0  0  0  0  0
+          0  0  0  0  0  0  0  0  0  0  0  0  0  0  0  0  0
+          0  0  0  0  0  0  0  0  0  0  0  0  0  0  0  0  0
++         0  0  0  0  0  0  0  0  0  0  0  0  0  0  0  0  0
++         0  0  0  0  0  0  0  0  0  0  0  0  0  0  0  0  0
++         0  0  0  0  0  0  0  0  0  0  0  0  0  0  0  0  0
++         0  0  0  0  0  0  0  0  0  0  0  0  0  0  0  0  0
++         0  0  0  0  0  0  0  0  0  0  0  0  0  0  0  0  0
%c cc cc ccc ccc cccc cccc cccc cccc ccccc ccccc ccccc ccccc
%c cc cc ccc ccc cccc cccc cccc cccc ccccc ccccc ccccc ccccc
%f  0.0000000  0.000000000  0.00000000000  0.000000000000000
%f  0.0000000  0.000000000  0.00000000000  0.000000000000000
%i    0    0    0    0      0      0      0      0         0
%i    0    0    0    0      0      0      0      0         0
/*      NGA, ST. LOUIS,MO.                                  
/*   EPHEMERIS COMPUTED FROM  3 DAYS OF DATA                
/* CCCCCCCCCCCCCCCCCCCCCCCCCCCCCCCCCCCCCCCCCCCCCCCCCCCCCCCCC
/* CCCCCCCCCCCCCCCCCCCCCCCCCCCCCCCCCCCCCCCCCCCCCCCCCCCCCCCCC
*  2006  5 24 11 30   .00000000                                                 
P  1  -9786.905615  18157.440093  16899.119003     54.877852                    
V  1 -19012.864188   9111.159369 -21087.335710       .024850                    
P  2  -2464.571025 -17387.887434  19724.284898      -.502384                    
V  2  23042.235345  11201.494120  12383.022700       .028303                    
P  3  -2836.907199  19138.722391 -18232.023587    101.152384                    
V  3 -19811.595676  11979.088687  16108.294621       .030500                    
P  4  10251.168086 -11809.538801  21455.844323    237.684106                    
V  4  23645.329182  13732.695805  -3387.954715       .090721                    
P  5 -13322.672109 -16703.266821  15683.991484     37.366385                    
V  5    243.101668 -20411.998468 -21096.105183       .508433                    
P  6 -22869.106865   3068.921186  13417.378064    537.819254                    
V  6  12528.978295 -11462.599309  24255.997048       .157900                    
P  7 -19125.832601  17730.358147  -5052.616475    538.759322                    
V  7  -7590.118481   1040.273461  30212.478205       .020517                    
P  8  17705.737391  -4814.941202 -19490.899067    -66.735918                    
V  8  20327.257892  13301.111727  14896.885979      -.011970                    
P  9 -20258.846100 -15962.713829  -7479.865294     21.521898                    
V  9   8821.639284   1806.631431 -29682.700563       .015203                    
P 10  -1249.360831 -26303.186157  -1826.605533     83.925863                    
V 10   2664.787741  -2219.780981  32131.612553       .005751                    
P 11  22384.568229  13312.129473  -5902.558540    329.091663                    
V 11  -8494.510663   1504.873417 -28905.003754       .024394                    
P 13  22779.377432  -3149.786940  13149.093284     64.171755                    
V 13 -13828.168361   9686.605315  26155.794351       .027926                    
P 14 -21007.684040  15660.193219   4237.269482    -13.398141                    
V 14  -5577.601334    963.243780 -31745.923549       .007886                    
P 15 -17844.947809   4703.798776 -19403.663923    617.617457                    
V 15 -19679.253163 -14096.025769  14400.187341       .060157                    
P 16  -2535.105900  26071.167059   4121.170971     44.866905                    
V 16  -2888.971510  -5101.965224  31271.286976       .025058                    
P 17  21424.597219 -15339.974301   2882.720339     94.685375                    
V 17   4649.647214    569.551445 -31525.908070       .026797                    
P 18 -15218.454611   1891.121816 -21567.690324   -236.582319                    
V 18    203.200330 -27658.586440  -2857.910042      -.015450                    
P 19   7860.933668  13050.087323 -21648.498611     -9.209996                    
V 19 -24515.741346  13014.461751  -1005.505305       .020236                    
P 20  13046.517980  14600.146735  17867.075032    -26.417668                    
V 20   -949.867915  22916.123595 -17906.534404       .006023                    
P 21 -23038.206558  -2473.829834 -13390.379731     30.855909                    
V 21 -13362.706761 -10646.278280  24317.511809       .026290                    
P 22 -12113.121391  16857.165930 -16411.967467     99.273932                    
V 22  -1373.736307 -21195.752807 -20576.234496       .039687                    
P 23  16229.249821   6241.559945  20028.893698    140.889575                    
V 23 -21339.438296  14126.474572  12671.388900      -.007426                    
P 24  19429.096402  -2991.706326  18217.623568      8.309834                    
V 24  18489.410178  13004.723212 -17554.853091       .028086                    
P 25  -4369.692850  15002.323906  21872.157262    125.789533                    
V 25 -24750.802342 -10431.243843   2384.834824       .882405                    
P 26  -5188.729303 -13929.944220 -22361.825667   -124.798737                    
V 26  24002.544346 -13250.845224   3307.717742      -.116735                    
P 27  23648.090877   2123.039863 -11628.849712     50.218647                    
V 27  13093.929212   8786.372708  26528.009337       .017274                    
P 28  13014.469268 -13132.924795 -18647.018171     26.765745                    
V 28   1774.564215  24403.546552 -16044.556601      -.009028                    
P 29  -1120.345982 -15704.717524 -21104.478553    609.705614                    
V 29  23623.182344 -13765.959025   9161.102565       .059636                    
P 30 -15405.964154  -4631.137916  20872.602751    259.513846                    
V 30   -889.540599 -27186.245116  -6483.947546       .176071                    
EOF
